ORBCOMM FM36            
1 25984U 99065E   26008.22405320  .00001125  00000+0  40882-3 0  9994
2 25984  45.0371 198.7628 0002493 242.5084 117.5512 14.38792442363945
ORBCOMM FM35            
1 25985U 99065F   26008.21620914  .00001077  00000+0  40209-3 0  9991
2 25985  45.0376 205.5104 0003460 351.8373   8.2419 14.37695069364283
ORBCOMM FM34            
1 25986U 99065G   26008.25329675  .00000857  00000+0  32984-3 0  9992
2 25986  45.0371 205.8124 0003297 295.5710  64.4797 14.37632881364401
ORBCOMM FM38            
1 33060U 08031A   26004.76613348  .00003077  00000+0  40658-3 0  9996
2 33060  48.4397  73.8972 0004877 200.7860 159.2858 14.82393776944649
ORBCOMM FM41            
1 33061U 08031B   26008.20696047  .00001393  00000+0  20085-3 0  9998
2 33061  48.4433  65.9803 0004037 200.8660 200.6987 14.81957752944635
